[{"OBJECT_NAME":"KUZGTU 1 (RS47S)","OBJECT_ID":"2023-091AV","EPOCH":"2026-03-09T22:22:51.965760","MEAN_MOTION":15.27481352,"ECCENTRICITY":0.0012896,"INCLINATION":97.5178,"RA_OF_ASC_NODE":132.5224,"ARG_OF_PERICENTER":89.3666,"MEAN_ANOMALY":270.9051,"EPHEMERIS_TYPE":0,"CLASSIFICATION_TYPE":"U","NORAD_CAT_ID":57217,"ELEMENT_SET_NO":999,"REV_AT_EPOCH":14921,"BSTAR":0.00057711473,"MEAN_MOTION_DOT":0.00015496,"MEAN_MOTION_DDOT":0},{"OBJECT_NAME":"STARLINK-32593","OBJECT_ID":"2024-210R","EPOCH":"2026-03-09T06:53:38.337792","MEAN_MOTION":15.27595378,"ECCENTRICITY":0.00028414,"INCLINATION":43.0026,"RA_OF_ASC_NODE":182.5093,"ARG_OF_PERICENTER":295.6911,"MEAN_ANOMALY":64.3648,"EPHEMERIS_TYPE":0,"CLASSIFICATION_TYPE":"U","NORAD_CAT_ID":61974,"ELEMENT_SET_NO":999,"REV_AT_EPOCH":7481,"BSTAR":0.0014146192,"MEAN_MOTION_DOT":0.00038891,"MEAN_MOTION_DDOT":0}]
